{
  "type": "FeatureCollection",
  "features": [
    {
      "type": "Feature",
      "geometry": {
        "type": "Point",
        "coordinates": [
          27.079582214355472,
          58.208773658420796
        ]
      },
      "properties": {
        "geom_type": "point",
        "species": "hunt",
        "direction": "none",
        "date": "2026-08-11",
        "pack_size": 1,
        "remarks": "",
        "registered_at": "2026-08-11T20:21:21.484Z",
        "_source_file": "jalg_hunt_2026-08-11_2026-08-11T20-21-21-485Z.geojson"
      }
    }
  ]
}
